NORAD_CAT_ID,OBJECT_NAME,OBJECT_TYPE,EPOCH,MEAN_MOTION,ECCENTRICITY,INCLINATION,RA_OF_ASC_NODE,ARG_OF_PERICENTER,MEAN_ANOMALY,BSTAR,MEAN_MOTION_DOT,MEAN_MOTION_DDOT,TLE_LINE0,TLE_LINE1,TLE_LINE2,SEMIMAJOR_AXIS,PERIOD,APOGEE,PERIGEE,DECAYED
54203.0,STARLINK-5247,PAYLOAD,2023-04-07 04:25:50,15.08834871,0.0001077,53.2184,106.1391,103.3922,256.719,5.7641e-05,6.3e-06,0.0,0 STARLINK-5247,1 54203U 22141AY  23097.18461077  .00000630  00000-0  57641-4 0  9995,2 54203  53.2184 106.1391 0001077 103.3922 256.7190 15.08834871 25074,6917.896,95.438,540.506,539.016,0.0
54203.0,STARLINK-5247,PAYLOAD,2023-04-07 10:47:22,15.08838477,0.0001139,53.2184,104.9488,108.5155,251.5961,7.8552e-05,9.63e-06,0.0,0 STARLINK-5247,1 54203U 22141AY  23097.44956795  .00000963  00000-0  78552-4 0  9993,2 54203  53.2184 104.9488 0001139 108.5155 251.5961 15.08838477 24884,6917.885,95.438,540.538,538.962,0.0
54203.0,STARLINK-5247,PAYLOAD,2023-04-08 05:52:00,15.08836383,0.000119,53.2184,101.3807,105.25,254.8623,3.172e-05,2.17e-06,0.0,0 STARLINK-5247,1 54203U 22141AY  23098.24445225  .00000217  00000-0  31720-4 0  9991,2 54203  53.2184 101.3807 0001190 105.2500 254.8623 15.08836383 25230,6917.891,95.438,540.58,538.933,0.0
54203.0,STARLINK-5247,PAYLOAD,2023-04-09 07:18:10,15.0883898,0.0001134,53.2186,96.623,97.0491,263.0631,5.2675e-05,5.51e-06,0.0,0 STARLINK-5247,1 54203U 22141AY  23099.30429299  .00000551  00000-0  52675-4 0  9995,2 54203  53.2186  96.6230 0001134  97.0491 263.0631 15.08838980 25396,6917.884,95.438,540.533,538.964,0.0
54203.0,STARLINK-5247,PAYLOAD,2023-04-09 16:50:29,15.08840278,0.0001139,53.2187,94.8389,95.4913,264.6209,6.1538e-05,6.92e-06,0.0,0 STARLINK-5247,1 54203U 22141AY  23099.70173207  .00000692  00000-0  61538-4 0  9998,2 54203  53.2187  94.8389 0001139  95.4913 264.6209 15.08840278 25221,6917.88,95.438,540.532,538.957,0.0
54203.0,STARLINK-5247,PAYLOAD,2023-04-10 08:44:20,15.08845369,0.0001163,53.2185,91.866,95.2173,264.8952,0.00013219,1.817e-05,0.0,0 STARLINK-5247,1 54203U 22141AY  23100.36412807  .00001817  00000-0  13219-3 0  9997,2 54203  53.2185  91.8660 0001163  95.2173 264.8952 15.08845369 25550,6917.864,95.437,540.534,538.924,0.0
54203.0,STARLINK-5247,PAYLOAD,2023-04-10 16:41:16,15.08837804,0.0001117,53.219,90.3776,91.0978,269.0142,4.9034e-05,4.93e-06,0.0,0 STARLINK-5247,1 54203U 22141AY  23100.69533449  .00000493  00000-0  49034-4 0  9993,2 54203  53.2190  90.3776 0001117  91.0978 269.0142 15.08837804 25603,6917.887,95.438,540.525,538.979,0.0
54203.0,STARLINK-5247,PAYLOAD,2023-04-11 08:35:08,15.08841331,0.0001138,53.2184,87.4028,96.0482,264.064,5.5736e-05,5.99e-06,0.0,0 STARLINK-5247,1 54203U 22141AY  23101.35773241  .00000599  00000-0  55736-4 0  9996,2 54203  53.2184  87.4028 0001138  96.0482 264.0640 15.08841331 25474,6917.876,95.437,540.529,538.954,0.0
54203.0,STARLINK-5247,PAYLOAD,2023-04-11 16:32:03,15.08842203,0.0001094,53.2176,85.9182,90.0697,270.042,5.4966e-05,5.87e-06,0.0,0 STARLINK-5247,1 54203U 22141AY  23101.68893232  .00000587  00000-0  54966-4 0  9996,2 54203  53.2176  85.9182 0001094  90.0697 270.0420 15.08842203 25520,6917.874,95.437,540.495,538.982,0.0
54203.0,STARLINK-5247,PAYLOAD,2023-04-12 05:15:08,15.08838169,8.73e-05,53.2185,83.5377,100.1756,259.9335,9.5381e-05,1.231e-05,0.0,0 STARLINK-5247,1 54203U 22141AY  23102.21885321  .00001231  00000-0  95381-4 0  9999,2 54203  53.2185  83.5377 0000873 100.1756 259.9335 15.08838169 25834,6917.886,95.438,540.355,539.147,0.0
54203.0,STARLINK-5247,PAYLOAD,2023-04-12 10:01:17,15.08849596,0.0001207,53.2185,82.6463,96.3929,263.72,9.3356e-05,1.199e-05,0.0,0 STARLINK-5247,1 54203U 22141AY  23102.41756617  .00001199  00000-0  93356-4 0  9999,2 54203  53.2185  82.6463 0001207  96.3929 263.7200 15.08849596 25638,6917.851,95.437,540.551,538.881,0.0
54203.0,STARLINK-5247,PAYLOAD,2023-04-13 09:52:05,15.08843291,0.0001325,53.2205,78.1886,93.1835,266.9308,-2.2821e-05,-6.51e-06,0.0,0 STARLINK-5247,1 54203U 22141AY  23103.41117624 -.00000651  00000-0 -22821-4 0  9992,2 54203  53.2205  78.1886 0001325  93.1835 266.9308 15.08843291 25788,6917.87,95.437,540.652,538.819,0.0
54203.0,STARLINK-5247,PAYLOAD,2023-04-14 06:32:05,15.08850611,0.0001283,53.2191,74.3215,89.5936,270.5203,9.587e-05,1.239e-05,0.0,0 STARLINK-5247,1 54203U 22141AY  23104.27228972  .00001239  00000-0  95870-4 0  9991,2 54203  53.2191  74.3215 0001283  89.5936 270.5203 15.08850611 25914,6917.848,95.437,540.601,538.825,0.0
54203.0,STARLINK-5247,PAYLOAD,2023-04-15 04:47:29,15.08847937,0.0001132,53.2195,70.1586,94.9247,265.1875,0.00014795,2.068e-05,0.0,0 STARLINK-5247,1 54203U 22141AY  23105.19965129  .00002068  00000-0  14795-3 0  9992,2 54203  53.2195  70.1586 0001132  94.9247 265.1875 15.08847937 26284,6917.856,95.437,540.504,538.938,0.0
54203.0,STARLINK-5247,PAYLOAD,2023-04-15 06:22:52,15.08849259,0.0001153,53.2196,69.861,95.0736,265.0388,0.00016018,2.263e-05,0.0,0 STARLINK-5247,1 54203U 22141AY  23105.26589039  .00002263  00000-0  16018-3 0  9999,2 54203  53.2196  69.8610 0001153  95.0736 265.0388 15.08849259 26069,6917.852,95.437,540.515,538.919,0.0
54203.0,STARLINK-5247,PAYLOAD,2023-04-16 07:49:03,15.08840696,0.0001243,53.2186,65.1014,80.0691,280.0441,-5.725e-05,-1.199e-05,0.0,0 STARLINK-5247,1 54203U 22141AY  23106.32573706 -.00001199  00000-0 -57250-4 0  9994,2 54203  53.2186  65.1014 0001243  80.0691 280.0441 15.08840696 26220,6917.878,95.438,540.603,538.883,0.0
54203.0,STARLINK-5247,PAYLOAD,2023-04-17 06:04:27,15.08845719,0.0001215,53.2191,60.9392,80.8047,279.3082,0.00015507,2.181e-05,0.0,0 STARLINK-5247,1 54203U 22141AY  23107.25309717  .00002181  00000-0  15507-3 0  9994,2 54203  53.2191  60.9392 0001215  80.8047 279.3082 15.08845719 26593,6917.863,95.437,540.568,538.887,0.0
54203.0,STARLINK-5247,PAYLOAD,2023-04-18 05:55:14,15.08848235,0.0001221,53.2187,56.4781,88.6657,271.4476,0.00020068,2.908e-05,0.0,0 STARLINK-5247,1 54203U 22141AY  23108.24669710  .00002908  00000-0  20068-3 0  9991,2 54203  53.2187  56.4781 0001221  88.6657 271.4476 15.08848235 26518,6917.855,95.437,540.565,538.876,0.0
54203.0,STARLINK-5247,PAYLOAD,2023-04-18 20:13:43,15.08835068,0.0001503,53.2187,53.8032,75.6676,284.4483,3.8897e-05,3.31e-06,0.0,0 STARLINK-5247,1 54203U 22141AY  23108.84286708  .00000331  00000-0  38897-4 0  9997,2 54203  53.2187  53.8032 0001503  75.6676 284.4483 15.08835068 26835,6917.895,95.438,540.8,538.721,0.0
54203.0,STARLINK-5247,PAYLOAD,2023-04-19 05:46:02,15.08843157,0.0001267,53.2181,52.0182,92.1753,267.9384,2.8933e-05,1.73e-06,0.0,0 STARLINK-5247,1 54203U 22141AY  23109.24030227  .00000173  00000-0  28933-4 0  9999,2 54203  53.2181  52.0182 0001267  92.1753 267.9384 15.08843157 26893,6917.871,95.437,540.612,538.859,0.0
54203.0,STARLINK-5247,PAYLOAD,2023-04-20 05:36:48,15.08859378,0.000118,53.2194,47.5596,83.5137,276.599,0.00026581,3.947e-05,0.0,0 STARLINK-5247,1 54203U 22141AY  23110.23389463  .00003947  00000-0  26581-3 0  9997,2 54203  53.2194  47.5596 0001180  83.5137 276.5990 15.08859378 26812,6917.821,95.436,540.502,538.87,0.0
54203.0,STARLINK-5247,PAYLOAD,2023-04-21 03:52:13,15.08832127,0.0001459,53.2194,43.3952,93.1833,266.9326,-2.4059e-05,-6.71e-06,0.0,0 STARLINK-5247,1 54203U 22141AY  23111.16127308 -.00000671  00000-0 -24059-4 0  9990,2 54203  53.2194  43.3952 0001459  93.1833 266.9326 15.08832127 27181,6917.904,95.438,540.779,538.76,0.0
54203.0,STARLINK-5247,PAYLOAD,2023-04-21 05:27:36,15.08835954,0.0001295,53.2199,43.0978,106.3463,253.7671,3.1248e-05,2.09e-06,0.0,0 STARLINK-5247,1 54203U 22141AY  23111.22751136  .00000209  00000-0  31248-4 0  9992,2 54203  53.2199  43.0978 0001295 106.3463 253.7671 15.08835954 26968,6917.893,95.438,540.654,538.862,0.0
54203.0,STARLINK-5247,PAYLOAD,2023-04-21 19:46:04,15.08845324,0.0001127,53.2194,40.4221,113.939,246.172,3.0736e-05,2.01e-06,0.0,0 STARLINK-5247,1 54203U 22141AY  23111.82366656  .00000201  00000-0  30736-4 0  9990,2 54203  53.2194  40.4221 0001127 113.9390 246.1720 15.08845324 27056,6917.864,95.437,540.509,538.949,0.0
54203.0,STARLINK-5247,PAYLOAD,2023-04-22 02:07:37,15.08849622,9.2e-05,53.2188,39.235,101.5583,258.5512,9.0993e-05,1.161e-05,0.0,0 STARLINK-5247,1 54203U 22141AY  23112.08862381  .00001161  00000-0  90993-4 0  9992,2 54203  53.2188  39.2350 0000920 101.5583 258.5512 15.08849622 27326,6917.851,95.437,540.352,539.08,0.0
54203.0,STARLINK-5247,PAYLOAD,2023-04-22 05:18:23,15.088558,0.0001107,53.2186,38.6394,106.1107,254.0007,0.00033499,5.05e-05,0.0,0 STARLINK-5247,1 54203U 22141AY  23112.22110198  .00005050  00000-0  33499-3 0  9998,2 54203  53.2186  38.6394 0001107 106.1107 254.0007 15.08855800 27118,6917.832,95.437,540.463,538.931,0.0
54203.0,STARLINK-5247,PAYLOAD,2023-04-24 03:24:33,15.08860587,0.0001047,53.2183,30.015,114.8375,245.2726,0.00040706,6.2e-05,0.0,0 STARLINK-5247,1 54203U 22141AY  23114.14205886  .00006200  00000-0  40706-3 0  9997,2 54203  53.2183  30.0150 0001047 114.8375 245.2726 15.08860587 27632,6917.817,95.436,540.407,538.958,0.0
54203.0,STARLINK-5247,PAYLOAD,2023-04-25 03:15:18,15.08894568,0.0001307,53.2178,25.557,96.4255,263.6886,0.00073003,0.00011367,0.0,0 STARLINK-5247,1 54203U 22141AY  23115.13563317  .00011367  00000-0  73003-3 0  9999,2 54203  53.2178  25.5570 0001307  96.4255 263.6886 15.08894568 27785,6917.714,95.434,540.483,538.674,0.0
54203.0,STARLINK-5247,PAYLOAD,2023-04-26 04:41:33,15.08769796,0.0001186,53.2179,20.8002,74.6255,285.4868,-0.0011951,-0.00019221,0.0,0 STARLINK-5247,1 54203U 22141AY  23116.19552386 -.00019221  00000-0 -11951-2 0  9992,2 54203  53.2179  20.8002 0001186  74.6255 285.4868 15.08769796 27716,6918.095,95.442,540.78,539.139,0.0
54203.0,STARLINK-5247,PAYLOAD,2023-04-26 17:24:38,15.08807508,0.0001215,53.2171,18.4208,45.1951,314.914,0.00080663,0.00012561,0.0,0 STARLINK-5247,1 54203U 22141AY  23116.72544171  .00012561  00000-0  80663-3 0  9999,2 54203  53.2171  18.4208 0001215  45.1951 314.9140 15.08807508 27791,6917.98,95.44,540.685,539.004,0.0
